STARLINK-38093          
1 69980U 26159F   26203.25002315  .00040617  00000+0  21214-3 0  9996
2 69980  97.2856  42.3370 0001416  95.1435  65.5976 15.80780702  2984
STARLINK-38050          
1 69981U 26159G   26203.25002315 -.02267858  00000+0 -14299-1 0  9992
2 69981  97.2856  42.3368 0002091  79.4723  85.0244 15.79677924  2981
STARLINK-38065          
1 69982U 26159H   26203.25002315 -.00100157  00000+0 -52735-3 0  9998
2 69982  97.2856  42.3399 0001474  88.7358  80.5279 15.80849036  2982
STARLINK-38077          
1 69983U 26159J   26203.25002315 -.00172187  00000+0 -91275-3 0  9993
2 69983  97.2858  42.3421 0001501  90.9280  82.5991 15.80892907  2989
STARLINK-38068          
1 69984U 26159K   26203.25002315 -.00158051  00000+0 -83671-3 0  9999
2 69984  97.2856  42.3441 0001356  82.5384  95.2653 15.80885666  2980
STARLINK-38089          
1 69985U 26159L   26203.25002315 -.00167894  00000+0 -88976-3 0  9998
2 69985  97.2856  42.3459 0001637  90.1947  91.8815 15.80887068  2982
STARLINK-38073          
1 69986U 26159M   26203.25002315 -.00014171  00000+0 -73357-4 0  9996
2 69986  97.2854  42.3479 0001439  60.1488 126.2190 15.80815708  2981
STARLINK-38099          
1 69987U 26159N   26203.25002315 -.00101926  00000+0 -53684-3 0  9992
2 69987  97.2855  42.3483 0001704  84.5923 106.0456 15.80845910  2986
STARLINK-38064          
1 69988U 26159P   26203.25002315  .00065528  00000+0  34104-3 0  9994
2 69988  97.2854  42.3533 0001588  91.3001 107.9092 15.80766406  2983
STARLINK-38080          
1 69989U 26159Q   26203.25002315 -.00121095  00000+0 -63868-3 0  9998
2 69989  97.2853  42.3515 0001474  97.9016  97.0053 15.80869006  2981
STARLINK-38070          
1 69990U 26159R   26203.25002315 -.00067145  00000+0 -35161-3 0  9990
2 69990  97.2852  42.3550 0001563  93.0182 110.3878 15.80870610  2988
STARLINK-38042          
1 69991U 26159S   26203.25002315  .00034625  00000+0  18102-3 0  9992
2 69991  97.2852  42.3571 0001661 101.9814 105.7630 15.80787090  2985
STARLINK-38071          
1 69992U 26159T   26203.25002315 -.00173861  00000+0 -92191-3 0  9991
2 69992  97.2853  42.3586 0001431  93.7510 118.2421 15.80890821  2983
STARLINK-38082          
1 69993U 26159U   26203.25002315  .00018283  00000+0  96081-4 0  9999
2 69993  97.2854  42.3611 0001253  93.7043 122.5842 15.80794884  2984
STARLINK-38090          
1 69994U 26159V   26203.25002315 -.00198985  00000+0 -10574-2 0  9991
2 69994  97.2853  42.3624 0001496  93.9622 126.5668 15.80908768  2980
STARLINK-38084          
1 69995U 26159W   26203.25002315 -.02161957  00000+0 -12998-1 0  9994
2 69995  97.2852  42.3634 0001728  87.9189 136.8769 15.81123889  2980
STARLINK-38085          
1 69996U 26159X   26203.25002315 -.00157345  00000+0 -83258-3 0  9998
2 69996  97.2853  42.3664 0001342  85.8185 143.2534 15.80894211  2985
STARLINK-38091          
1 69997U 26159Y   26203.25002315 -.00030712  00000+0 -16009-3 0  9997
2 69997  97.2851  42.3675 0001619  91.5002 141.8636 15.80825012  2985
STARLINK-38086          
1 69998U 26159Z   26203.25002315  .00004463  00000+0  24035-4 0  9999
2 69998  97.2852  42.3694 0001674  99.6282 138.0090 15.80807583  2983
