OBJECT_NAME,OBJECT_ID,EPOCH,MEAN_MOTION,ECCENTRICITY,INCLINATION,RA_OF_ASC_NODE,ARG_OF_PERICENTER,MEAN_ANOMALY,EPHEMERIS_TYPE,CLASSIFICATION_TYPE,NORAD_CAT_ID,ELEMENT_SET_NO,REV_AT_EPOCH,BSTAR,MEAN_MOTION_DOT,MEAN_MOTION_DDOT
STARLINK-38093,2026-159F,2026-07-22T06:00:02.000160,15.80780702,.0001416,97.2856,42.3370,95.1435,65.5976,0,U,69980,999,298,.21214034E-3,.40617E-3,0
STARLINK-38050,2026-159G,2026-07-22T06:00:02.000160,15.79677924,.00020911,97.2856,42.3368,79.4723,85.0244,0,U,69981,999,298,-.1429919E-1,-.2267858E-1,0
STARLINK-38065,2026-159H,2026-07-22T06:00:02.000160,15.80849036,.00014746,97.2856,42.3399,88.7358,80.5279,0,U,69982,999,298,-.52734613E-3,-.100157E-2,0
STARLINK-38077,2026-159J,2026-07-22T06:00:02.000160,15.80892907,.00015014,97.2858,42.3421,90.9280,82.5991,0,U,69983,999,298,-.91275366E-3,-.172187E-2,0
STARLINK-38068,2026-159K,2026-07-22T06:00:02.000160,15.80885666,.00013562,97.2856,42.3441,82.5384,95.2653,0,U,69984,999,298,-.83671151E-3,-.158051E-2,0
STARLINK-38089,2026-159L,2026-07-22T06:00:02.000160,15.80887068,.00016375,97.2856,42.3459,90.1947,91.8815,0,U,69985,999,298,-.88975906E-3,-.167894E-2,0
STARLINK-38073,2026-159M,2026-07-22T06:00:02.000160,15.80815708,.00014392,97.2854,42.3479,60.1488,126.2190,0,U,69986,999,298,-.73357401E-4,-.14171E-3,0
STARLINK-38099,2026-159N,2026-07-22T06:00:02.000160,15.80845910,.00017046,97.2855,42.3483,84.5923,106.0456,0,U,69987,999,298,-.53683533E-3,-.101926E-2,0
STARLINK-38064,2026-159P,2026-07-22T06:00:02.000160,15.80766406,.00015884,97.2854,42.3533,91.3001,107.9092,0,U,69988,999,298,.3410372E-3,.65528E-3,0
STARLINK-38080,2026-159Q,2026-07-22T06:00:02.000160,15.80869006,.00014746,97.2853,42.3515,97.9016,97.0053,0,U,69989,999,298,-.63867894E-3,-.121095E-2,0
STARLINK-38070,2026-159R,2026-07-22T06:00:02.000160,15.80870610,.00015631,97.2852,42.3550,93.0182,110.3878,0,U,69990,999,298,-.35160502E-3,-.67145E-3,0
STARLINK-38042,2026-159S,2026-07-22T06:00:02.000160,15.80787090,.00016613,97.2852,42.3571,101.9814,105.7630,0,U,69991,999,298,.18102019E-3,.34625E-3,0
STARLINK-38071,2026-159T,2026-07-22T06:00:02.000160,15.80890821,.00014316,97.2853,42.3586,93.7510,118.2421,0,U,69992,999,298,-.9219062E-3,-.173861E-2,0
STARLINK-38082,2026-159U,2026-07-22T06:00:02.000160,15.80794884,.00012539,97.2854,42.3611,93.7043,122.5842,0,U,69993,999,298,.96081055E-4,.18283E-3,0
STARLINK-38090,2026-159V,2026-07-22T06:00:02.000160,15.80908768,.00014964,97.2853,42.3624,93.9622,126.5668,0,U,69994,999,298,-.10573661E-2,-.198985E-2,0
STARLINK-38084,2026-159W,2026-07-22T06:00:02.000160,15.81123889,.00017287,97.2852,42.3634,87.9189,136.8769,0,U,69995,999,298,-.12998464E-1,-.2161957E-1,0
STARLINK-38085,2026-159X,2026-07-22T06:00:02.000160,15.80894211,.00013429,97.2853,42.3664,85.8185,143.2534,0,U,69996,999,298,-.83257937E-3,-.157345E-2,0
STARLINK-38091,2026-159Y,2026-07-22T06:00:02.000160,15.80825012,.0001619,97.2851,42.3675,91.5002,141.8636,0,U,69997,999,298,-.16008561E-3,-.30712E-3,0
STARLINK-38086,2026-159Z,2026-07-22T06:00:02.000160,15.80807583,.00016748,97.2852,42.3694,99.6282,138.0090,0,U,69998,999,298,.24034852E-4,.4463E-4,0
